{"type": "FeatureCollection", "features": [ {"type": "Feature", "properties": {"norad_id": 66574, "name": "STARLINK-35812", "group": "last-30-days", "lat": -15.659580162863024, "lon": 2.798728995199171, "alt_km": 366.19980046205546, "timestamp": "2025-12-05T05:43:13.897303+00:00", "meta": {"OBJECT_NAME": "STARLINK-35812", "OBJECT_ID": "2025-268T", "EPOCH": "2025-12-04T18:00:02.000160", "MEAN_MOTION": 15.69898051, "ECCENTRICITY": 0.000165, "INCLINATION": 42.9987, "RA_OF_ASC_NODE": 168.2266, "ARG_OF_PERICENTER": 268.3918, "MEAN_ANOMALY": 53.4606, "EPHEMERIS_TYPE": 0, "CLASSIFICATION_TYPE": "U", "NORAD_CAT_ID": 66574, "ELEMENT_SET_NO": 999, "REV_AT_EPOCH": 338, "BSTAR": -0.017714, "MEAN_MOTION_DOT": -0.01935031, "MEAN_MOTION_DDOT": 0}, "tle": {"line1": "1 66574U 25268T   25338.75002315 -.01935031  00000+0 -17714-1 0  9999", "line2": "2 66574  42.9987 168.2266 0001650 268.3918  53.4606 15.69898051  3389"}}, "geometry": {"type": "Point", "coordinates": [2.798728995199171, -15.659580162863024]}}, {"type": "Feature", "properties": {"norad_id": 66575, "name": "STARLINK-35810", "group": "last-30-days", "lat": -16.900778275883617, "lon": 4.3165452769701815, "alt_km": 366.20220111073104, "timestamp": "2025-12-05T05:43:13.897313+00:00", "meta": {"OBJECT_NAME": "STARLINK-35810", "OBJECT_ID": "2025-268U", "EPOCH": "2025-12-04T18:00:02.000160", "MEAN_MOTION": 15.69898831, "ECCENTRICITY": 0.0001636, "INCLINATION": 42.9987, "RA_OF_ASC_NODE": 168.2219, "ARG_OF_PERICENTER": 265.6192, "MEAN_ANOMALY": 58.1486, "EPHEMERIS_TYPE": 0, "CLASSIFICATION_TYPE": "U", "NORAD_CAT_ID": 66575, "ELEMENT_SET_NO": 999, "REV_AT_EPOCH": 338, "BSTAR": -0.017707, "MEAN_MOTION_DOT": -0.01934366, "MEAN_MOTION_DDOT": 0}, "tle": {"line1": "1 66575U 25268U   25338.75002315 -.01934366  00000+0 -17707-1 0  9992", "line2": "2 66575  42.9987 168.2219 0001636 265.6192  58.1486 15.69898831  3380"}}, "geometry": {"type": "Point", "coordinates": [4.3165452769701815, -16.900778275883617]}}, {"type": "Feature", "properties": {"norad_id": 66576, "name": "STARLINK-35814", "group": "last-30-days", "lat": -18.130012181015406, "lon": 5.853634540510102, "alt_km": 366.37141273095585, "timestamp": "2025-12-05T05:43:13.897325+00:00", "meta": {"OBJECT_NAME": "STARLINK-35814", "OBJECT_ID": "2025-268V", "EPOCH": "2025-12-04T18:00:02.000160", "MEAN_MOTION": 15.69903635, "ECCENTRICITY": 0.0001544, "INCLINATION": 42.9987, "RA_OF_ASC_NODE": 168.2171, "ARG_OF_PERICENTER": 267.9929, "MEAN_ANOMALY": 57.6908, "EPHEMERIS_TYPE": 0, "CLASSIFICATION_TYPE": "U", "NORAD_CAT_ID": 66576, "ELEMENT_SET_NO": 999, "REV_AT_EPOCH": 338, "BSTAR": -0.017779, "MEAN_MOTION_DOT": -0.01941627, "MEAN_MOTION_DDOT": 0}, "tle": {"line1": "1 66576U 25268V   25338.75002315 -.01941627  00000+0 -17779-1 0  9990", "line2": "2 66576  42.9987 168.2171 0001544 267.9929  57.6908 15.69903635  3381"}}, "geometry": {"type": "Point", "coordinates": [5.853634540510102, -18.130012181015406]}}, {"type": "Feature", "properties": {"norad_id": 66577, "name": "STARLINK-35815", "group": "last-30-days", "lat": -19.346124211212267, "lon": 7.411496376355083, "alt_km": 366.4535096589789, "timestamp": "2025-12-05T05:43:13.897337+00:00", "meta": {"OBJECT_NAME": "STARLINK-35815", "OBJECT_ID": "2025-268W", "EPOCH": "2025-12-04T18:00:02.000160", "MEAN_MOTION": 15.6990267, "ECCENTRICITY": 0.000156, "INCLINATION": 42.9989, "RA_OF_ASC_NODE": 168.2124, "ARG_OF_PERICENTER": 268.7347, "MEAN_ANOMALY": 58.8667, "EPHEMERIS_TYPE": 0, "CLASSIFICATION_TYPE": "U", "NORAD_CAT_ID": 66577, "ELEMENT_SET_NO": 999, "REV_AT_EPOCH": 338, "BSTAR": -0.017774, "MEAN_MOTION_DOT": -0.01941083, "MEAN_MOTION_DDOT": 0}, "tle": {"line1": "1 66577U 25268W   25338.75002315 -.01941083  00000+0 -17774-1 0  9992", "line2": "2 66577  42.9989 168.2124 0001560 268.7347  58.8667 15.69902670  3386"}}, "geometry": {"type": "Point", "coordinates": [7.411496376355083, -19.346124211212267]}}, {"type": "Feature", "properties": {"norad_id": 66578, "name": "STARLINK-35743", "group": "last-30-days", "lat": -20.550820622673083, "lon": 8.995463539714718, "alt_km": 366.4671992385829, "timestamp": "2025-12-05T05:43:13.897347+00:00", "meta": {"OBJECT_NAME": "STARLINK-35743", "OBJECT_ID": "2025-268X", "EPOCH": "2025-12-04T18:00:02.000160", "MEAN_MOTION": 15.69879859, "ECCENTRICITY": 0.0001544, "INCLINATION": 42.9988, "RA_OF_ASC_NODE": 168.2074, "ARG_OF_PERICENTER": 266.9203, "MEAN_ANOMALY": 62.6157, "EPHEMERIS_TYPE": 0, "CLASSIFICATION_TYPE": "U", "NORAD_CAT_ID": 66578, "ELEMENT_SET_NO": 999, "REV_AT_EPOCH": 338, "BSTAR": -0.017543, "MEAN_MOTION_DOT": -0.01917127, "MEAN_MOTION_DDOT": 0}, "tle": {"line1": "1 66578U 25268X   25338.75002315 -.01917127  00000+0 -17543-1 0  9999", "line2": "2 66578  42.9988 168.2074 0001544 266.9203  62.6157 15.69879859  3382"}}, "geometry": {"type": "Point", "coordinates": [8.995463539714718, -20.550820622673083]}}, {"type": "Feature", "properties": {"norad_id": 66579, "name": "STARLINK-35868", "group": "last-30-days", "lat": -21.736263962888582, "lon": 10.598322197661405, "alt_km": 366.4797600870361, "timestamp": "2025-12-05T05:43:13.897359+00:00", "meta": {"OBJECT_NAME": "STARLINK-35868", "OBJECT_ID": "2025-268Y", "EPOCH": "2025-12-04T18:00:02.000160", "MEAN_MOTION": 15.69902067, "ECCENTRICITY": 0.0001731, "INCLINATION": 42.9988, "RA_OF_ASC_NODE": 168.2026, "ARG_OF_PERICENTER": 267.5787, "MEAN_ANOMALY": 63.8548, "EPHEMERIS_TYPE": 0, "CLASSIFICATION_TYPE": "U", "NORAD_CAT_ID": 66579, "ELEMENT_SET_NO": 999, "REV_AT_EPOCH": 338, "BSTAR": -0.017747, "MEAN_MOTION_DOT": -0.01938598, "MEAN_MOTION_DDOT": 0}, "tle": {"line1": "1 66579U 25268Y   25338.75002315 -.01938598  00000+0 -17747-1 0  9991", "line2": "2 66579  42.9988 168.2026 0001731 267.5787  63.8548 15.69902067  3387"}}, "geometry": {"type": "Point", "coordinates": [10.598322197661405, -21.736263962888582]}}, {"type": "Feature", "properties": {"norad_id": 66580, "name": "STARLINK-35872", "group": "last-30-days", "lat": -22.908874364435757, "lon": 12.232360618585616, "alt_km": 366.61326382245625, "timestamp": "2025-12-05T05:43:13.897369+00:00", "meta": {"OBJECT_NAME": "STARLINK-35872", "OBJECT_ID": "2025-268Z", "EPOCH": "2025-12-04T18:00:02.000160", "MEAN_MOTION": 15.69904317, "ECCENTRICITY": 0.0001651, "INCLINATION": 42.9988, "RA_OF_ASC_NODE": 168.1982, "ARG_OF_PERICENTER": 269.3017, "MEAN_ANOMALY": 64.0493, "EPHEMERIS_TYPE": 0, "CLASSIFICATION_TYPE": "U", "NORAD_CAT_ID": 66580, "ELEMENT_SET_NO": 999, "REV_AT_EPOCH": 338, "BSTAR": -0.01779, "MEAN_MOTION_DOT": -0.01942788, "MEAN_MOTION_DDOT": 0}, "tle": {"line1": "1 66580U 25268Z   25338.75002315 -.01942788  00000+0 -17790-1 0  9997", "line2": "2 66580  42.9988 168.1982 0001651 269.3017  64.0493 15.69904317  3388"}}, "geometry": {"type": "Point", "coordinates": [12.232360618585616, -22.908874364435757]}}, {"type": "Feature", "properties": {"norad_id": 66581, "name": "STARLINK-35744", "group": "last-30-days", "lat": -24.064004992077024, "lon": 13.893007880988138, "alt_km": 366.62122413101133, "timestamp": "2025-12-05T05:43:13.897379+00:00", "meta": {"OBJECT_NAME": "STARLINK-35744", "OBJECT_ID": "2025-268AA", "EPOCH": "2025-12-04T18:00:02.000160", "MEAN_MOTION": 15.6990048, "ECCENTRICITY": 0.000171, "INCLINATION": 42.9988, "RA_OF_ASC_NODE": 168.1926, "ARG_OF_PERICENTER": 268.7196, "MEAN_ANOMALY": 66.5502, "EPHEMERIS_TYPE": 0, "CLASSIFICATION_TYPE": "U", "NORAD_CAT_ID": 66581, "ELEMENT_SET_NO": 999, "REV_AT_EPOCH": 333, "BSTAR": -0.017741, "MEAN_MOTION_DOT": -0.01937827, "MEAN_MOTION_DDOT": 0}, "tle": {"line1": "1 66581U 25268AA  25338.75002315 -.01937827  00000+0 -17741-1 0  9992", "line2": "2 66581  42.9988 168.1926 0001710 268.7196  66.5502 15.69900480  3334"}}, "geometry": {"type": "Point", "coordinates": [13.893007880988138, -24.064004992077024]}}, {"type": "Feature", "properties": {"norad_id": 66582, "name": "STARLINK-35746", "group": "last-30-days", "lat": -25.200363769755025, "lon": 15.583871060470562, "alt_km": 366.7172274192435, "timestamp": "2025-12-05T05:43:13.897388+00:00", "meta": {"OBJECT_NAME": "STARLINK-35746", "OBJECT_ID": "2025-268AB", "EPOCH": "2025-12-04T18:00:02.000160", "MEAN_MOTION": 15.69900194, "ECCENTRICITY": 0.0001709, "INCLINATION": 42.9988, "RA_OF_ASC_NODE": 168.1878, "ARG_OF_PERICENTER": 270.7037, "MEAN_ANOMALY": 66.4837, "EPHEMERIS_TYPE": 0, "CLASSIFICATION_TYPE": "U", "NORAD_CAT_ID": 66582, "ELEMENT_SET_NO": 999, "REV_AT_EPOCH": 338, "BSTAR": -0.017745, "MEAN_MOTION_DOT": -0.01938277, "MEAN_MOTION_DDOT": 0}, "tle": {"line1": "1 66582U 25268AB  25338.75002315 -.01938277  00000+0 -17745-1 0  9997", "line2": "2 66582  42.9988 168.1878 0001709 270.7037  66.4837 15.69900194  3383"}}, "geometry": {"type": "Point", "coordinates": [15.583871060470562, -25.200363769755025]}}, {"type": "Feature", "properties": {"norad_id": 66583, "name": "STARLINK-35941", "group": "last-30-days", "lat": -26.31779148066016, "lon": 17.307582663724727, "alt_km": 366.74439630035886, "timestamp": "2025-12-05T05:43:13.897399+00:00", "meta": {"OBJECT_NAME": "STARLINK-35941", "OBJECT_ID": "2025-268AC", "EPOCH": "2025-12-04T18:00:02.000160", "MEAN_MOTION": 15.69901123, "ECCENTRICITY": 0.0001699, "INCLINATION": 42.9989, "RA_OF_ASC_NODE": 168.1831, "ARG_OF_PERICENTER": 269.8752, "MEAN_ANOMALY": 69.2288, "EPHEMERIS_TYPE": 0, "CLASSIFICATION_TYPE": "U", "NORAD_CAT_ID": 66583, "ELEMENT_SET_NO": 999, "REV_AT_EPOCH": 338, "BSTAR": -0.017755, "MEAN_MOTION_DOT": -0.01939207, "MEAN_MOTION_DDOT": 0}, "tle": {"line1": "1 66583U 25268AC  25338.75002315 -.01939207  00000+0 -17755-1 0  9993", "line2": "2 66583  42.9989 168.1831 0001699 269.8752  69.2288 15.69901123  3389"}}, "geometry": {"type": "Point", "coordinates": [17.307582663724727, -26.31779148066016]}}]}